     2              NAVIGATION DATA                         RINEX VERSION / TYPE
CCRINEXN V1.6.0 UX  CDDIS               21-MAY-18 23:30     PGM / RUN BY / DATE
IGS BROADCAST EPHEMERIS FILE                                COMMENT
    0.7451D-08  0.2235D-07 -0.5960D-07 -0.1192D-06          ION ALPHA
    0.8602D+05  0.8192D+05 -0.1311D+06 -0.5243D+06          ION BETA
   -0.931322574615D-09 0.000000000000D+00   319488     2002 DELTA-UTC: A0,A1,T,W
    18                                                      LEAP SECONDS
                                                            END OF HEADER 
 1 18  5 21 20  0  0.0-0.496576540172D-04-0.295585778076D-11 0.000000000000D+00
    0.670000000000D+02-0.769687500000D+02 0.457590498826D-08 0.539554813824D+00
   -0.379793345928D-05 0.778754206840D-02 0.499375164509D-05 0.515366921806D+04
    0.158400000000D+06-0.558793544769D-08-0.262256456852D+01 0.135973095894D-06
    0.971345799331D+00 0.285000000000D+03 0.625497219178D+00-0.835284819090D-08
   -0.278225886774D-09 0.100000000000D+01 0.200200000000D+04 0.000000000000D+00
    0.280000000000D+01 0.000000000000D+00 0.558793544769D-08 0.670000000000D+02
    0.151230000000D+06 0.000000000000D+00 0.000000000000D+00 0.000000000000D+00
 3 18  5 21 20  0  0.0 0.747400335967D-04 0.716227077646D-11 0.000000000000D+00
    0.660000000000D+02-0.594062500000D+02 0.440839809102D-08-0.329638453050D+00
   -0.320561230183D-05 0.138301122934D-02 0.111777335405D-04 0.515375833130D+04
    0.158400000000D+06 0.298023223877D-07-0.157968790777D+01 0.540167093277D-07
    0.960645211895D+00 0.161875000000D+03 0.425064132690D+00-0.795140220333D-08
   -0.892894352206D-11 0.100000000000D+01 0.200200000000D+04 0.000000000000D+00
    0.200000000000D+01 0.000000000000D+00 0.232830643654D-08 0.660000000000D+02
    0.151230000000D+06 0.000000000000D+00 0.000000000000D+00 0.000000000000D+00
 7 18  5 21 20  0  0.0 0.188126228750D-03-0.613908923697D-11 0.000000000000D+00
    0.890000000000D+02 0.117812500000D+02 0.483341544566D-08-0.148131863361D+00
    0.754371285439D-06 0.116056068800D-01 0.673718750477D-05 0.515365851784D+04
    0.158400000000D+06 0.108033418655D-06 0.531688472170D+00 0.150874257088D-06
    0.958902023581D+00 0.249968750000D+03-0.253235003569D+01-0.837284908073D-08
   -0.198579694355D-09 0.100000000000D+01 0.200200000000D+04 0.000000000000D+00
    0.280000000000D+01 0.000000000000D+00-0.111758708954D-07 0.890000000000D+02
    0.151230000000D+06 0.000000000000D+00 0.000000000000D+00 0.000000000000D+00 
16 18  5 21 20  0  0.0 0.240732915699D-04-0.125055521494D-11 0.000000000000D+00
    0.660000000000D+02 0.606250000000D+02 0.383765996759D-08-0.263846269616D+01
    0.284798443317D-05 0.100326145766D-01 0.968948006630D-05 0.515364210510D+04
    0.158400000000D+06-0.223517417908D-07 0.164323928545D+01-0.234693288803D-06
    0.986872316519D+00 0.208375000000D+03 0.515722450504D+00-0.765281882309D-08
   -0.125005205839D-10 0.100000000000D+01 0.200200000000D+04 0.000000000000D+00
    0.280000000000D+01 0.000000000000D+00-0.107102096081D-07 0.660000000000D+02
    0.151230000000D+06 0.000000000000D+00 0.000000000000D+00 0.000000000000D+00
23 18  5 21 20  0  0.0-0.216823536903D-03 0.454747350886D-12 0.000000000000D+00
    0.470000000000D+02 0.307812500000D+02 0.503520958262D-08 0.139681430306D+01
    0.168196856976D-05 0.125069804490D-01 0.847131013870D-05 0.515379258919D+04
    0.158400000000D+06-0.169500708580D-06-0.547233730801D+00 0.484287738800D-07
    0.943662782543D+00 0.210781250000D+03-0.236346560559D+01-0.836070501720D-08
    0.134291314180D-09 0.100000000000D+01 0.200200000000D+04 0.000000000000D+00
    0.200000000000D+01 0.000000000000D+00-0.200234353542D-07 0.470000000000D+02
    0.151230000000D+06 0.000000000000D+00 0.000000000000D+00 0.000000000000D+00
30 18  5 21 20  0  0.0 0.715684145689D-04-0.432009983342D-11 0.000000000000D+00
    0.650000000000D+02 0.815625000000D+01 0.507735453681D-08-0.465312591737D-01
    0.476837158203D-06 0.340796960518D-02 0.662356615067D-05 0.515373171234D+04
    0.158400000000D+06 0.763684511185D-07 0.565347104085D+00 0.111758708954D-07
    0.944490501592D+00 0.242218750000D+03-0.308787639808D+01-0.840213587594D-08
   -0.210008746504D-09 0.100000000000D+01 0.200200000000D+04 0.000000000000D+00
    0.200000000000D+01 0.000000000000D+00 0.372529029846D-08 0.650000000000D+02
    0.151230000000D+06 0.000000000000D+00 0.000000000000D+00 0.000000000000D+00
    0.152580000000D+06 0.400000000000D+01 0.000000000000D+00 0.000000000000D+00
32 18  5 21 20  0  0.0-0.506297685206D-03 0.534328137292D-11 0.000000000000D+00
    0.390000000000D+02 0.351875000000D+02 0.459626288137D-08-0.285692821268D+01
    0.187568366528D-05 0.211635651067D-02 0.798888504505D-05 0.515366262245D+04
    0.158400000000D+06 0.745058059692D-08-0.540724608470D+00 0.502914190292D-07
    0.957225431687D+00 0.224468750000D+03-0.256314710036D+01-0.802819154926D-08
    0.307512809143D-09 0.100000000000D+01 0.200200000000D+04 0.000000000000D+00
    0.200000000000D+01 0.000000000000D+00 0.465661287308D-09 0.390000000000D+02
    0.151230000000D+06 0.400000000000D+01 0.000000000000D+00 0.000000000000D+00 
